satname,norad_id,inclination_deg,eccentricity,mean_motion_rev_per_day,perigee_km,apogee_km,l1,l2
STARLINK-1543,46053,53.1598,0.0001529,15.31704052,469.6807250053989,471.7751078968504,1 46053U 20055AC  26131.55785742  .00000690  00000+0  34005-4 0  9996,2 46053  53.1598 181.6769 0001529  66.7045 293.4117 15.31704052318708
STARLINK-1548,46054,53.1588,0.0001269,15.31711551,469.8364443909186,471.5746806332845,1 46054U 20055AD  26131.83285118  .00001443  00000+0  58244-4 0  9998,2 46054  53.1588 180.4702 0001269  86.1883 273.9263 15.31711551318740
STARLINK-1554,46055,53.1592,0.0001183,15.31693074,469.9504167580744,471.57086594001703,1 46055U 20055AE  26131.42271228  .00001937  00000+0  74190-4 0  9997,2 46055  53.1592 182.3246 0001183  93.3882 266.7255 15.31693074318687
STARLINK-1564,46058,53.159,0.0001208,15.30194047,474.40495698475024,476.06073113907496,1 46058U 20055AH  26131.84234900  .00001559  00000+0  64774-4 0  9999,2 46058  53.1590 181.0295 0001208  94.9497 265.1641 15.30194047318738
STARLINK-1570,46059,53.1596,0.0001315,15.31680271,469.89817192068585,471.6994420379215,1 46059U 20055AJ  26131.84215755  .00004942  00000+0  17103-3 0  9999,2 46059  53.1596 180.2547 0001315 101.7611 258.3538 15.31680271318706
STARLINK-1572,46060,53.1593,0.0001137,15.30192444,474.45840167070946,476.01685906165494,1 46060U 20055AK  26131.43145900  .00000366  00000+0  24487-4 0  9990,2 46060  53.1593 182.6868 0001137  88.7514 271.3617 15.30192444318640
STARLINK-1573,46061,53.1572,0.000123,15.31707437,469.8754168617397,471.56023514893695,1 46061U 20055AL  26131.82816259  .00002677  00000+0  97980-4 0  9991,2 46061  53.1572 180.2873 0001230  88.6108 271.5034 15.31707437318741
STARLINK-1577,46063,53.161,0.0001123,15.31700481,469.96943266450853,471.50769011559714,1 46063U 20055AN  26131.85612513  .00000042  00000+0  13113-4 0  9993,2 46063  53.1610 180.1523 0001123  73.8913 286.2212 15.31700481318741
STARLINK-1583,46064,53.1596,0.0001671,15.30189314,474.10177561243836,476.39217653724245,1 46064U 20055AP  26131.85280148  .00000301  00000+0  22296-4 0  9999,2 46064  53.1596 180.4763 0001671  83.2590 276.8600 15.30189314318738
STARLINK-1536,46070,53.1594,0.0001282,15.31704377,469.84892328939077,471.604972005568,1 46070U 20055AV  26131.80621530  .00000575  00000+0  30300-4 0  9993,2 46070  53.1594 168.2712 0001282  72.6708 287.4434 15.31704377318907
STARLINK-1542,46073,53.1507,0.0001323,15.29371248,476.78366486256255,478.5977168695654,1 46073U 20055AY  26131.82826456  .00005498  00000+0  20261-3 0  9995,2 46073  53.1507 171.1079 0001323  61.6954 298.4180 15.29371248318858
STARLINK-1549,46074,53.0486,0.0003544,15.274703,480.9458761897813,485.8093177361088,1 46074U 20055AZ  26131.79474044  .00025484  00000+0  94501-3 0  9999,2 46074  53.0486 168.1132 0003544  24.8884 335.2284 15.27470300318885
STARLINK-1551,46075,53.1609,0.0001211,15.30194407,474.4018262020991,476.0617121179903,1 46075U 20055BA  26131.83327818  .00000663  00000+0  34525-4 0  9994,2 46075  53.1609 167.7672 0001211  84.6149 275.4990 15.30194407318902
STARLINK-1552,46076,53.1591,0.0001131,15.31673761,470.0435966012492,471.5928302705288,1 46076U 20055BB  26132.00002315  .00049368  00000+0  15934-2 0  9993,2 46076  53.1591 166.8865 0001131  94.3883  22.0301 15.31673761  5777
STARLINK-1559,46077,53.0236,0.0003049,15.35792993,456.48159040880273,460.6506119599044,1 46077U 20055BC  26131.28675497  .00038772  00000+0  11026-2 0  9995,2 46077  53.0236 141.1277 0003049  12.8016 347.3062 15.35792993319182
STARLINK-1566,46079,53.1598,0.00012,15.3170176,469.9128841524034,471.55661337210586,1 46079U 20055BE  26131.52682362  .00000416  00000+0  25182-4 0  9997,2 46079  53.1598 168.9437 0001200  84.6079 275.5059 15.31701760318864
STARLINK-1568,46080,53.0587,0.0004635,15.51817843,408.2716113704719,414.5655293842101,1 46080U 20055BF  26131.91216885  .00029179  00000+0  48553-3 0  9998,2 46080  53.0587  90.0650 0004635  16.9696 343.1467 15.51817843319995
STARLINK-1578,46082,53.1599,0.0001471,15.31704563,469.71892538871543,471.7338609989929,1 46082U 20055BH  26131.79221429  .00000109  00000+0  15277-4 0  9996,2 46082  53.1599 168.2259 0001471  61.4048 298.7101 15.31704563318895
STARLINK-1579,46083,53.1609,0.0001177,15.31696412,469.94457680660435,471.55680496904006,1 46083U 20055BJ  26131.51750879  .00000182  00000+0  17620-4 0  9998,2 46083  53.1609 169.0384 0001177  78.9297 281.1837 15.31696412318859
STARLINK-1622,46128,53.0194,0.0003833,15.76528522,337.7099379695155,342.8602803583999,1 46128U 20057M   26130.69453993  .00095742  00000+0  58730-3 0  9997,2 46128  53.0194 277.3688 0003833 336.2894  23.7948 15.76528522317106
STARLINK-1623,46129,53.045,0.0001272,15.69444275,359.6301079351706,361.34441394715486,1 46129U 20057N   26131.78524849  .00070457  00000+0  58783-3 0  9992,2 46129  53.0450 308.3815 0001272 282.7260  77.3614 15.69444275316777
STARLINK-1624,46130,53.0301,0.0010054,15.9781371,273.79120438317386,287.1803630766972,1 46130U 20057P   26132.00002315  .00382708  71479-4  82642-3 0  9998,2 46130  53.0301 274.6377 0010054 295.2674 175.5511 15.97813710  5911
STARLINK-1596,46141,53.039,0.0003209,15.55039237,399.8628163099447,404.2143329937562,1 46141U 20057AA  26131.16793743  .00077140  00000+0  11245-2 0  9996,2 46141  53.0390 290.9731 0003209 289.1807  70.8855 15.55039237316966
STARLINK-1597,46142,53.0452,0.0002158,15.69153304,359.865897360507,362.77464711920675,1 46142U 20057AB  26131.88426400  .00067870  00000+0  57341-3 0  9996,2 46142  53.0452 347.5809 0002158  67.2481 292.8764 15.69153304316227
STARLINK-1606,46144,53.0383,0.0003853,15.79830759,328.33473587251774,333.5047349928418,1 46144U 20057AD  26132.00002315  .00061725  00000+0  32919-3 0  9995,2 46144  53.0383 302.6148 0003853 248.1086 323.1134 15.79830759  5731
STARLINK-1608,46146,53.16,0.0001556,15.33637683,463.90515801663423,466.0347328980606,1 46146U 20057AF  26131.95561518  .00034760  00000+0  10604-2 0  9990,2 46146  53.1600  14.9681 0001556 183.5528 176.5464 15.33637683315878
STARLINK-1667,46155,53.016,0.0005856,15.79141055,328.9431195001007,336.80305451400363,1 46155U 20057AQ  26130.69830447  .00121184  00000+0  65826-3 0  9994,2 46155  53.0160 277.3791 0005856 329.0446  31.0228 15.79141055318349
STARLINK-1545,46156,53.0417,0.0004199,15.75313439,340.91688631577836,346.56191811836015,1 46156U 20057AR  26131.87836387  .00097912  00000+0  63315-3 0  9997,2 46156  53.0417 306.6302 0004199 214.6401 145.4345 15.75313439318059
